{
  "totalcount": 234,
  "employers": [
    {
      "state": "AZ",
      "city": "PHOENIX",
      "fax": "6025557531",
      "address": "202 OAK AVE",
      "id": "161",
      "name": "ROSS NICOLETTI",
      "phone": "6025554632",
      "zip": "85014"
    },
    {
      "state": "GA",
      "city": "CANTON",
      "fax": "8885553653",
      "address": "8762 STONERIDGE CT",
      "id": "21",
      "name": "HARLAND REIDY",
      "phone": "8885556523",
      "zip": "30115"
    },
    {
      "fax": "8885554668",
      "address": "8762 STONERIDGE CT",
      "id": "41",
      "name": "LYDA BURDICK",
      "phone": "8885557990"
    },
    {
      "fax": "8885553247",
      "address": "8762 STONERIDGE CT",
      "id": "101",
      "name": "SHELLI MARCO",
      "phone": "8885557201"
    },
    {
      "state": "MI",
      "city": "DEARBORN",
      "fax": "8885556755",
      "address": "8762 STONERIDGE CT",
      "id": "121",
      "name": "GEORGIA HANDLEY",
      "phone": "8885550681",
      "zip": "48124"
    },
    {
      "fax": "8885551735",
      "address": "8762 STONERIDGE CT",
      "id": "141",
      "name": "STEFANIA BORKOWSKI",
      "phone": "8885555797"
    },
    {
      "state": "MA",
      "city": "Florida",
      "fax": "21321434",
      "address": "332 street",
      "id": "202",
      "name": "TEST123",
      "phone": "02664444",
      "zip": "41109"
    },
    {
      "state": "456",
      "city": "4563456",
      "fax": "456",
      "address": "63456",
      "id": "222",
      "name": "456",
      "phone": "456",
      "zip": "456"
    },
    {
      "id": "322",
      "name": "MY COMPANY"
    },
    {
      "state": "Georgia",
      "city": "Atlanta",
      "address": "219 Perimeter Center Parkway",
      "id": "362",
      "name": "STEVEN STRANGE",
      "phone": "4045551234"
    },
    {
      "id": "382",
      "name": "EMPLOYERNAME"
    },
    {
      "id": "402",
      "name": "DEFERRED AUTH"
    },
    {
      "state": "SDDSF",
      "city": "SADASD",
      "fax": "",
      "address": "SDASD",
      "id": "422",
      "name": "DASD",
      "phone": "",
      "zip": "12121"
    },
    {
      "state": "SDDSF",
      "city": "SADASD",
      "fax": "",
      "address": "SDASD",
      "id": "423",
      "name": "DASD",
      "phone": "",
      "zip": "12121"
    },
    {
      "state": "SDDSF",
      "city": "SADASD",
      "fax": "",
      "address": "SDASD",
      "id": "425",
      "name": "DASD",
      "phone": "",
      "zip": "12121"
    },
    {
      "state": "G",
      "city": "G",
      "fax": "",
      "address": "G",
      "id": "463",
      "name": "G",
      "phone": "",
      "zip": "g"
    },
    {
      "state": "AZ",
      "city": "TUCSON",
      "address": "2000 W 1ST AVE",
      "id": "502",
      "name": "TEST CO.",
      "phone": "6027778889",
      "zip": "85296"
    },
    {
      "id": "523",
      "name": "TEST_FOOT_EMP"
    },
    {
      "id": "525",
      "name": "UNDEFINED"
    },
    {
      "id": "526",
      "name": "UNDEFINED"
    },
    {
      "fax": "12345",
      "id": "540",
      "name": "ADDRESS="
    },
    {
      "fax": "12345",
      "id": "545",
      "name": "ADDRESS="
    },
    {
      "fax": "12345",
      "id": "548",
      "name": "ADDRESS="
    },
    {
      "fax": "12345",
      "id": "558",
      "name": "ADDRESS="
    },
    {
      "state": "TAMIL NADU",
      "city": "CBE",
      "fax": "12345",
      "id": "559",
      "name": "JHKJADDRESS=CBE",
      "phone": "9976274280",
      "zip": "641045"
    },
    {
      "state": "TAMIL NADU",
      "city": "CBE",
      "fax": "12345",
      "id": "562",
      "name": "JHKJADDRESS=CBE",
      "phone": "9976274280",
      "zip": "641045"
    },
    {
      "state": "TAMIL NADU",
      "city": "CBE",
      "fax": "12345",
      "id": "563",
      "name": "SAWERRADDRESS=CBE",
      "phone": "9976274280",
      "zip": "641045"
    },
    {
      "state": "TAMIL NADU",
      "city": "CBE",
      "fax": "12345",
      "id": "564",
      "name": "KHKJADDRESS=CBE",
      "phone": "9976274280",
      "zip": "641045"
    },
    {
      "state": "TAMIL NADU",
      "city": "CBE",
      "fax": "12345",
      "id": "566",
      "name": "HHHHADDRESS=CBE",
      "phone": "9976274280",
      "zip": "641045"
    },
    {
      "fax": "12345",
      "id": "574",
      "name": "UNDEFINEDADDRESS=8762 STONERIDGE CT",
      "phone": ""
    },
    {
      "state": "TAMIL NADU",
      "city": "CBE",
      "fax": "12345",
      "id": "579",
      "name": "SDSDFADDRESS=CBE",
      "phone": "9976274280",
      "zip": "641045"
    },
    {
      "fax": "12345",
      "id": "580",
      "name": "ADDRESS="
    },
    {
      "state": "TAMIL NADU",
      "city": "CBE",
      "fax": "12345",
      "id": "583",
      "name": "JHKJADDRESS=CBE",
      "phone": "9976274280",
      "zip": "641045"
    },
    {
      "state": "TAMIL NADU",
      "city": "CBE",
      "fax": "12345",
      "id": "584",
      "name": "JHKJADDRESS=CBE",
      "phone": "9976274280",
      "zip": "641045"
    },
    {
      "fax": "12345",
      "id": "600",
      "name": "UNDEFINEDADDRESS=8762 STONERIDGE CT",
      "phone": ""
    },
    {
      "fax": "12345",
      "id": "601",
      "name": "UNDEFINEDADDRESS=8762 STONERIDGE CT",
      "phone": ""
    },
    {
      "state": "GA",
      "city": "CANTON",
      "fax": "12345",
      "id": "604",
      "name": "REDDADDRESS=8762 STONERIDGE CT",
      "phone": "",
      "zip": "30115"
    },
    {
      "state": "GA",
      "city": "CANTON",
      "fax": "12345",
      "id": "610",
      "name": "REDDADDRESS=8762 STONERIDGE CT",
      "phone": "",
      "zip": "30115"
    },
    {
      "state": "WE",
      "city": "WE",
      "fax": "12345",
      "id": "611",
      "name": "ROSS NICOLETTIADDRESS=8762 STONERIDGE CT",
      "phone": "",
      "zip": "343424"
    },
    {
      "state": "EWR",
      "city": "ERER",
      "fax": "12345",
      "id": "614",
      "name": "ROSS NICOLETTIADDRESS=8762 STONERIDGE CT",
      "phone": "3432424242",
      "zip": "34324234"
    },
    {
      "state": "WEWQE",
      "city": "WEWE",
      "fax": "12345",
      "id": "620",
      "name": "ROSS NICOLETTIADDRESS=8762 STONERIDGE CT",
      "phone": "3444444444",
      "zip": "343434"
    },
    {
      "state": "WE",
      "city": "WE",
      "fax": "12345",
      "id": "621",
      "name": "ROSS NICOLETTIADDRESS=8762 STONERIDGE CTADDRESS=434",
      "phone": "7237454354",
      "zip": "343424"
    },
    {
      "state": "WE",
      "city": "WE",
      "fax": "12345",
      "id": "622",
      "name": "ROSS NICOLETTIADDRESS=8762 STONERIDGE CTADDRESS=434",
      "phone": "7237454354",
      "zip": "343424"
    },
    {
      "state": "TAMIL NADU",
      "city": "CBE",
      "fax": "12345",
      "id": "632",
      "name": "SAWERRADDRESS=CBEADDRESS=WEWE",
      "phone": "",
      "zip": "641045"
    },
    {
      "fax": "12345",
      "id": "654",
      "name": "ADDRESS="
    },
    {
      "fax": "12345",
      "id": "658",
      "name": "ADDRESS="
    },
    {
      "fax": "12345",
      "id": "659",
      "name": "ADDRESS="
    },
    {
      "fax": "12345",
      "id": "662",
      "name": "ADDRESS="
    },
    {
      "fax": "12345",
      "id": "666",
      "name": "ADDRESS="
    },
    {
      "fax": "12345",
      "id": "667",
      "name": "ADDRESS="
    },
    {
      "fax": "12345",
      "id": "671",
      "name": "ADDRESS="
    },
    {
      "fax": "12345",
      "id": "675",
      "name": "ADDRESS="
    },
    {
      "state": "DSADSA",
      "city": "DA",
      "fax": "",
      "address": "DSA",
      "id": "701",
      "name": "DAS",
      "phone": "",
      "zip": "dsadsa"
    },
    {
      "state": "DSADSA",
      "city": "DA",
      "fax": "",
      "address": "DSA",
      "id": "702",
      "name": "DAS",
      "phone": "",
      "zip": "dsadsa"
    },
    {
      "state": "INDIANA",
      "city": "HYD",
      "fax": "",
      "address": "GFSD",
      "id": "703",
      "name": "SFG",
      "phone": "12",
      "zip": "12311"
    },
    {
      "state": "INDIANA",
      "city": "HYD",
      "fax": "",
      "id": "715",
      "name": "SFG",
      "phone": "12",
      "zip": "12311"
    },
    {
      "id": "753",
      "name": "SFG"
    },
    {
      "id": "772",
      "name": "ABC"
    },
    {
      "id": "773",
      "name": "FASD"
    },
    {
      "id": "774",
      "name": "SFG"
    },
    {
      "id": "776",
      "name": "ABC"
    },
    {
      "id": "778",
      "name": "FASD"
    },
    {
      "state": "FLORIDA",
      "city": "HOPPIPOLA",
      "fax": "3829832990",
      "address": "1-4-5BLOCK44 TREET8",
      "id": "790",
      "name": "SFG",
      "phone": "7758965425",
      "zip": "456859"
    },
    {
      "id": "162",
      "name": "MIGHTY DUCKS"
    },
    {
      "state": "456",
      "city": "4563456",
      "fax": "456",
      "address": "63456",
      "id": "223",
      "name": "456",
      "phone": "456"
    },
    {
      "state": "ON",
      "city": "mississauga",
      "fax": "9058887777",
      "address": "22 employer blvd",
      "id": "242",
      "name": "EMPLOYERNAME",
      "phone": "4168882222",
      "zip": "L5A3X8"
    },
    {
      "state": "Illonis",
      "city": "NewYork",
      "address": "bangalore, banashankari 2nd stage",
      "id": "262",
      "name": "VIJAY",
      "phone": "9743536727",
      "zip": "56006"
    },
    {
      "state": "ME",
      "city": "ABBOT",
      "address": "8762 STONERIDGE CT",
      "id": "282",
      "name": "WEST HILL HOSPITAL",
      "phone": "2812345678",
      "zip": "04406"
    },
    {
      "id": "302",
      "name": "VANDELAY INDUSTRIES"
    },
    {
      "city": "palo alto",
      "id": "386",
      "name": "GOOGLE"
    },
    {
      "state": "ME",
      "city": "ATHENS",
      "fax": "8885559223",
      "address": "8762 STONERIDGE CT",
      "id": "427",
      "name": "LESLI MCROBERTS",
      "phone": "8885558163",
      "zip": "04912"
    },
    {
      "state": "GA",
      "city": "ATLANTA",
      "address": "TEST ADDRESS",
      "id": "442",
      "name": "TESTINGEMPLOYERPASS1",
      "zip": "30060"
    },
    {
      "state": "G",
      "city": "G",
      "fax": "",
      "address": "G",
      "id": "462",
      "name": "G",
      "phone": "",
      "zip": "g"
    },
    {
      "id": "522",
      "name": "TEST_FOOT_EMP"
    },
    {
      "state": "TAMIL NADU",
      "city": "CBE",
      "fax": "12345",
      "id": "527",
      "name": "SFASDFADDRESS=CBE",
      "phone": "9976274280",
      "zip": "641045"
    },
    {
      "state": "TAMIL NADU",
      "city": "CBE",
      "fax": "12345",
      "id": "529",
      "name": "SDFADDRESS=CBE",
      "zip": "641045"
    },
    {
      "state": "TAMIL NADU",
      "city": "CBE",
      "fax": "12345",
      "id": "531",
      "name": "TESTADDRESS=CBE",
      "phone": "9976274280",
      "zip": "641045"
    },
    {
      "fax": "12345",
      "id": "535",
      "name": "ADDRESS="
    },
    {
      "fax": "12345",
      "id": "538",
      "name": "ADDRESS="
    },
    {
      "fax": "12345",
      "id": "539",
      "name": "ADDRESS="
    },
    {
      "fax": "12345",
      "id": "542",
      "name": "ADDRESS="
    },
    {
      "state": "TAMIL NADU",
      "city": "CBE",
      "fax": "12345",
      "id": "547",
      "name": "TEST SANADDRESS=CBE",
      "phone": "9976274280",
      "zip": "641045"
    },
    {
      "state": "TAMIL NADU",
      "city": "CBE",
      "fax": "12345",
      "id": "554",
      "name": "TTASDFASDFADDRESS=CBE",
      "phone": "9976274280",
      "zip": "641045"
    },
    {
      "state": "TAMIL NADU",
      "city": "CBE",
      "fax": "12345",
      "id": "555",
      "name": "TTASDFASDFADDRESS=CBE",
      "phone": "9976274280",
      "zip": "641045"
    },
    {
      "state": "TAMIL NADU",
      "city": "CBE",
      "fax": "12345",
      "id": "556",
      "name": "XFGDDFGADDRESS=CBE",
      "phone": "9976274280",
      "zip": "641045"
    },
    {
      "state": "TAMIL NADU",
      "city": "CBE",
      "fax": "12345",
      "id": "560",
      "name": "JHKJADDRESS=CBE",
      "phone": "9976274280",
      "zip": "641045"
    },
    {
      "state": "TAMIL NADU",
      "city": "CBE",
      "fax": "12345",
      "id": "567",
      "name": "YOUTHADDRESS=CBE",
      "zip": "641045"
    },
    {
      "state": "TAMIL NADU",
      "city": "CBE",
      "fax": "12345",
      "id": "568",
      "name": "GFDHGFHADDRESS=CBE",
      "phone": "9976274280",
      "zip": "641045"
    },
    {
      "state": "TAMIL NADU",
      "city": "CBE",
      "fax": "12345",
      "id": "572",
      "name": "GHJADDRESS=CBE",
      "phone": "9976274280",
      "zip": "641045"
    },
    {
      "state": "TAMIL NADU",
      "city": "CBE",
      "fax": "12345",
      "id": "573",
      "name": "FGHFHFHGADDRESS=CBE",
      "phone": "9976274280",
      "zip": "641045"
    },
    {
      "fax": "12345",
      "id": "577",
      "name": "UNDEFINEDADDRESS=8762 STONERIDGE CT",
      "phone": ""
    },
    {
      "fax": "12345",
      "id": "582",
      "name": "ADDRESS="
    },
    {
      "state": "TAMIL NADU",
      "city": "CBE",
      "fax": "12345",
      "id": "585",
      "name": "JHKJADDRESS=CBE",
      "phone": "9976274280",
      "zip": "641045"
    },
    {
      "state": "TAMIL NADU",
      "city": "CBE",
      "fax": "12345",
      "id": "586",
      "name": "JHKJADDRESS=CBE",
      "phone": "9976274280",
      "zip": "641045"
    },
    {
      "state": "TAMIL NADU",
      "city": "CBE",
      "fax": "12345",
      "id": "587",
      "name": "JHKJADDRESS=CBE",
      "phone": "9976274280",
      "zip": "641045"
    },
    {
      "fax": "12345",
      "id": "589",
      "name": "BOBBY"
    },
    {
      "fax": "12345",
      "id": "591",
      "name": "ADDRESS="
    },
    {
      "fax": "12345",
      "id": "596",
      "name": "UNDEFINEDADDRESS=8762 STONERIDGE CT",
      "phone": ""
    },
    {
      "state": "TAMIL NADU",
      "city": "COIMBATORE",
      "fax": "12345",
      "id": "599",
      "name": "UNDEFINEDADDRESS=8762 STONERIDGE CT",
      "phone": "8695781197",
      "zip": "641021"
    },
    {
      "state": "GA",
      "city": "CANTON",
      "fax": "12345",
      "id": "605",
      "name": "REDDADDRESS=8762 STONERIDGE CT",
      "phone": "",
      "zip": "30115"
    },
    {
      "state": "WE",
      "city": "WE",
      "fax": "12345",
      "id": "624",
      "name": "ROSS NICOLETTIADDRESS=8762 STONERIDGE CTADDRESS=3434",
      "phone": "2342344444",
      "zip": "343424"
    },
    {
      "state": "32432",
      "city": "343",
      "fax": "12345",
      "id": "625",
      "name": "ROSS NICOLETTIADDRESS=8762 STONERIDGE CT",
      "phone": "",
      "zip": "32434324"
    },
    {
      "state": "SD",
      "city": "SDSD",
      "fax": "12345",
      "id": "626",
      "name": "ROSS NICOLETTIADDRESS=8762 STONERIDGE CT",
      "phone": "",
      "zip": "233"
    },
    {
      "state": "WE",
      "city": "WE",
      "fax": "12345",
      "id": "627",
      "name": "MY COMPANYADDRESS=WE",
      "phone": "",
      "zip": "we"
    },
    {
      "state": "WE",
      "city": "WEWE",
      "fax": "12345",
      "id": "628",
      "name": "ROSS NICOLETTIADDRESS=8762 STONERIDGE CT",
      "phone": "",
      "zip": "22323"
    },
    {
      "state": "SD",
      "city": "SD",
      "fax": "12345",
      "id": "629",
      "name": "ROSS NICOLETTIADDRESS=8762 STONERIDGE CT",
      "phone": "",
      "zip": "sd"
    },
    {
      "fax": "12345",
      "id": "660",
      "name": "ADDRESS="
    },
    {
      "fax": "12345",
      "id": "663",
      "name": "ADDRESS="
    },
    {
      "fax": "12345",
      "id": "672",
      "name": "ADDRESS="
    },
    {
      "fax": "12345",
      "id": "674",
      "name": "ADDRESS="
    },
    {
      "fax": "12345",
      "id": "676",
      "name": "ADDRESS="
    },
    {
      "fax": "12345",
      "id": "677",
      "name": "ADDRESS="
    },
    {
      "fax": "12345",
      "id": "680",
      "name": "ADDRESS="
    },
    {
      "state": "TEST",
      "city": "TEST",
      "fax": "12345",
      "id": "682",
      "name": "TESTADDRESS=8762 STONERIDGE CT",
      "phone": "",
      "zip": "638008"
    },
    {
      "id": "699",
      "name": "DAS"
    },
    {
      "state": "INDIANA",
      "city": "HYD",
      "fax": "",
      "address": "GFSD",
      "id": "704",
      "name": "SFG",
      "phone": "12",
      "zip": "12311"
    },
    {
      "state": "INDIANA",
      "fax": "",
      "address": "GFSD",
      "id": "712",
      "name": "SFG",
      "phone": "12",
      "zip": "12311"
    },
    {
      "state": "INDIANA",
      "city": "HYD",
      "fax": "",
      "id": "730",
      "name": "SFG",
      "phone": "12",
      "zip": "12311"
    },
    {
      "city": "HYD",
      "fax": "",
      "id": "732",
      "name": "SFG",
      "phone": "12"
    },
    {
      "state": "INDIANA",
      "city": "HYD",
      "fax": "",
      "address": "GFSD",
      "id": "736",
      "name": "SFG",
      "phone": "12",
      "zip": "12311"
    },
    {
      "id": "770",
      "name": "ABC"
    },
    {
      "id": "771",
      "name": "ABC"
    },
    {
      "state": "FLORIDA",
      "city": "HOPPIPOLA",
      "fax": "3829832990",
      "address": "1-4-5BLOCK44 TREET8",
      "id": "791",
      "name": "SFG",
      "phone": "7758965425",
      "zip": "456859"
    },
    {
      "state": "MO",
      "city": "KANSAS CITY",
      "fax": "8165550000",
      "address": "4321 ADDRESS1",
      "id": "810",
      "name": "TEST EMPLOYER",
      "phone": "8165550001",
      "zip": "64101"
    },
    {
      "id": "383",
      "name": "FRED"
    },
    {
      "state": "SDDSF",
      "city": "SADASD",
      "fax": "",
      "address": "SDASD",
      "id": "424",
      "name": "DASD",
      "phone": "",
      "zip": "12121"
    },
    {
      "state": "ADDF",
      "city": "ASA",
      "fax": "",
      "address": "SDFSD",
      "id": "426",
      "name": "ASDAS",
      "phone": "",
      "zip": "sdfa"
    },
    {
      "state": "ME",
      "city": "ATHENS",
      "fax": "8885559223",
      "address": "8762 STONERIDGE CT",
      "id": "429",
      "name": "LESLI MCROBERTS",
      "phone": "8885558163",
      "zip": "04912"
    },
    {
      "state": "ME",
      "city": "ATHENS",
      "fax": "8885559223",
      "address": "8762 STONERIDGE CT",
      "id": "431",
      "name": "LESLI MCROBERTS",
      "phone": "8885558163",
      "zip": "04912"
    },
    {
      "state": "TAMIL NADU",
      "city": "CBE",
      "fax": "12345",
      "id": "530",
      "name": "TESTADDRESS=CBE",
      "phone": "9976274280",
      "zip": "641045"
    },
    {
      "fax": "12345",
      "id": "532",
      "name": "ADDRESS="
    },
    {
      "fax": "12345",
      "id": "536",
      "name": "ADDRESS="
    },
    {
      "state": "TAMIL NADU",
      "city": "CBE",
      "fax": "12345",
      "id": "546",
      "name": "TEST SANADDRESS=CBE",
      "phone": "9976274280",
      "zip": "641045"
    },
    {
      "state": "TAMIL NADU",
      "city": "CBE",
      "fax": "12345",
      "id": "550",
      "name": "TESTTTTTTADDRESS=CBE",
      "zip": "641045"
    },
    {
      "state": "TAMIL NADU",
      "city": "CBE",
      "fax": "12345",
      "id": "551",
      "name": "TESTTTTTTADDRESS=CBE",
      "phone": "9976274280",
      "zip": "641045"
    },
    {
      "fax": "12345",
      "id": "552",
      "name": "ADDRESS="
    },
    {
      "fax": "12345",
      "id": "553",
      "name": "ADDRESS="
    },
    {
      "fax": "12345",
      "id": "557",
      "name": "ADDRESS="
    },
    {
      "state": "TAMIL NADU",
      "city": "CBE",
      "fax": "12345",
      "id": "561",
      "name": "JHKJADDRESS=CBE",
      "phone": "9976274280",
      "zip": "641045"
    },
    {
      "state": "TAMIL NADU",
      "city": "CBE",
      "fax": "12345",
      "id": "565",
      "name": "HHHHADDRESS=CBE",
      "phone": "9976274280",
      "zip": "641045"
    },
    {
      "state": "TAMIL NADU",
      "city": "CBE",
      "fax": "12345",
      "id": "569",
      "name": "GFDHGFHADDRESS=CBE",
      "phone": "9976274280",
      "zip": "641045"
    },
    {
      "state": "TAMIL NADU",
      "city": "CBE",
      "fax": "12345",
      "id": "571",
      "name": "DFGHFGHADDRESS=CBE",
      "phone": "9976274280",
      "zip": "641045"
    },
    {
      "fax": "12345",
      "id": "575",
      "name": "UNDEFINEDADDRESS=8762 STONERIDGE CT",
      "phone": ""
    },
    {
      "fax": "12345",
      "id": "578",
      "name": "UNDEFINEDADDRESS=8762 STONERIDGE CT",
      "phone": ""
    },
    {
      "fax": "12345",
      "id": "590",
      "name": "ADDRESS="
    },
    {
      "fax": "12345",
      "id": "593",
      "name": "UNDEFINEDADDRESS=8762 STONERIDGE CT",
      "phone": ""
    },
    {
      "fax": "12345",
      "id": "594",
      "name": "UNDEFINEDADDRESS=8762 STONERIDGE CT",
      "phone": ""
    },
    {
      "fax": "12345",
      "id": "595",
      "name": "UNDEFINEDADDRESS=8762 STONERIDGE CT",
      "phone": ""
    },
    {
      "fax": "12345",
      "id": "602",
      "name": "UNDEFINEDADDRESS=8762 STONERIDGE CT",
      "phone": ""
    },
    {
      "state": "GA",
      "city": "CANTON",
      "fax": "12345",
      "id": "607",
      "name": "REDDADDRESS=8762 STONERIDGE CT",
      "phone": "",
      "zip": "30115"
    },
    {
      "state": "EWR",
      "city": "ERER",
      "fax": "12345",
      "id": "612",
      "name": "ROSS NICOLETTIADDRESS=8762 STONERIDGE CT",
      "phone": "3432424242",
      "zip": "34324234"
    },
    {
      "state": "EWR",
      "city": "ERER",
      "fax": "12345",
      "id": "613",
      "name": "ROSS NICOLETTIADDRESS=8762 STONERIDGE CT",
      "phone": "3432424242",
      "zip": "34324234"
    },
    {
      "state": "WEWQE",
      "city": "WEWE",
      "fax": "12345",
      "id": "616",
      "name": "ROSS NICOLETTIADDRESS=8762 STONERIDGE CT",
      "phone": "3444444444",
      "zip": "343434"
    },
    {
      "state": "WEWQE",
      "city": "WEWE",
      "fax": "12345",
      "id": "619",
      "name": "ROSS NICOLETTIADDRESS=8762 STONERIDGE CT",
      "phone": "3444444444",
      "zip": "343434"
    },
    {
      "state": "WE",
      "city": "WE",
      "fax": "12345",
      "id": "623",
      "name": "ROSS NICOLETTIADDRESS=8762 STONERIDGE CTADDRESS=3434",
      "phone": "2342344444",
      "zip": "343424"
    },
    {
      "state": "SD",
      "city": "SDD",
      "fax": "12345",
      "id": "630",
      "name": "ROSS NICOLETTIADDRESS=8762 STONERIDGE CT",
      "phone": "",
      "zip": "sd"
    },
    {
      "state": "NY",
      "city": "LIVERPOOL",
      "address": "1234 FAKE ST.",
      "id": "650",
      "name": "NEW NAME",
      "phone": "3154094123",
      "zip": "13090"
    },
    {
      "fax": "12345",
      "id": "651",
      "name": "ADDRESS="
    },
    {
      "fax": "12345",
      "id": "653",
      "name": "ADDRESS="
    },
    {
      "fax": "12345",
      "id": "664",
      "name": "ADDRESS="
    },
    {
      "fax": "12345",
      "id": "665",
      "name": "ADDRESS="
    },
    {
      "fax": "12345",
      "id": "678",
      "name": "ADDRESS="
    },
    {
      "state": "TEST",
      "city": "TEST",
      "fax": "12345",
      "id": "681",
      "name": "UNDEFINEDADDRESS=8762 STONERIDGE CT",
      "phone": "",
      "zip": "638008"
    },
    {
      "state": "SF",
      "city": "SFDG",
      "fax": "",
      "address": "GFSD",
      "id": "690",
      "name": "SFG",
      "phone": "",
      "zip": "sfdg"
    },
    {
      "state": "DSADSA",
      "city": "DA",
      "fax": "",
      "address": "DSA",
      "id": "695",
      "name": "DAS",
      "phone": "",
      "zip": "dsadsa"
    },
    {
      "state": "DSADSA",
      "city": "DA",
      "fax": "",
      "address": "DSA",
      "id": "696",
      "name": "DAS",
      "phone": "",
      "zip": "dsadsa"
    },
    {
      "city": "DA",
      "address": "DSA",
      "id": "697",
      "name": "DAS",
      "phone": ""
    },
    {
      "id": "700",
      "name": "DAS"
    },
    {
      "state": "INDIANA",
      "fax": "",
      "address": "GFSD",
      "id": "713",
      "name": "SFG",
      "phone": "12",
      "zip": "12311"
    },
    {
      "state": "INDIANA",
      "city": "HYD",
      "fax": "",
      "id": "716",
      "name": "SFG",
      "phone": "12",
      "zip": "12311"
    },
    {
      "state": "INDIANA",
      "city": "HYD",
      "fax": "",
      "id": "731",
      "name": "SFG",
      "phone": "12"
    },
    {
      "state": "INDIANA",
      "city": "HYD",
      "fax": "",
      "id": "734",
      "name": "SFG",
      "phone": "12",
      "zip": "12311"
    },
    {
      "state": "INDIANA",
      "fax": "",
      "id": "735",
      "name": "SFG",
      "phone": "12",
      "zip": "12311"
    },
    {
      "id": "750",
      "name": "SDFA"
    },
    {
      "state": "FLORIDA",
      "city": "HOPPIPOLA",
      "fax": "3829832990",
      "address": "1-4-5 BLOCK 44 STREET 8",
      "id": "775",
      "name": "FASD",
      "phone": "7758965425",
      "zip": "456859"
    },
    {
      "state": "FLORIDA",
      "city": "HOPPIPOLA",
      "fax": "3829832990",
      "address": "1-4-5 BLOCK 44 STREET 8",
      "id": "777",
      "name": "FASD",
      "phone": "7758965425",
      "zip": "456859"
    },
    {
      "state": "FLORIDA",
      "city": "HOPPIPOLA",
      "fax": "3829832990",
      "address": "1-4-5BLOCK44 TREET8",
      "id": "782",
      "name": "SFG",
      "phone": "7758965425",
      "zip": "456859"
    },
    {
      "state": "FLORIDA",
      "city": "HOPPIPOLA",
      "fax": "3829832990",
      "address": "1-4-5BLOCK44 TREET8",
      "id": "783",
      "name": "SFG",
      "phone": "7758965425",
      "zip": "456859"
    },
    {
      "state": "TN",
      "city": "TENNESSE",
      "fax": "34343434",
      "address": "TEST",
      "id": "830",
      "name": "RAJ",
      "phone": "9098765432",
      "zip": "32037"
    },
    {
      "id": "303",
      "name": "VANDELAY INDUSTRIES"
    },
    {
      "state": "FL",
      "city": "orlando",
      "address": "1234 test st.",
      "id": "342",
      "name": "CENTRA G",
      "phone": "4072002222",
      "zip": "32825"
    },
    {
      "id": "384",
      "name": "FRED"
    },
    {
      "state": "state",
      "city": "city",
      "fax": "",
      "address": "address",
      "id": "385",
      "phone": "",
      "zip": "zip"
    },
    {
      "state": "ME",
      "city": "ATHENS",
      "fax": "8885559223",
      "address": "8762 STONERIDGE CT",
      "id": "428",
      "name": "LESLI MCROBERTS",
      "phone": "8885558163",
      "zip": "04912"
    },
    {
      "state": "ME",
      "city": "ATHENS",
      "fax": "8885559223",
      "address": "8762 STONERIDGE CT",
      "id": "430",
      "name": "LESLI MCROBERTS",
      "phone": "8885558163",
      "zip": "04912"
    },
    {
      "city": "NEW CITY",
      "address": "NEW ADDRESS",
      "id": "432",
      "name": "NEW NAME",
      "zip": "700000"
    },
    {
      "id": "524",
      "name": "TSET"
    },
    {
      "fax": "12345",
      "id": "528",
      "name": "ADDRESS="
    },
    {
      "state": "TAMIL NADU",
      "city": "CBE",
      "fax": "12345",
      "id": "533",
      "name": "TESTADDRESS=CBE",
      "phone": "9976274280",
      "zip": "641045"
    },
    {
      "fax": "12345",
      "id": "534",
      "name": "ADDRESS="
    },
    {
      "fax": "12345",
      "id": "537",
      "name": "ADDRESS="
    },
    {
      "fax": "12345",
      "id": "541",
      "name": "ADDRESS="
    },
    {
      "fax": "12345",
      "id": "543",
      "name": "ADDRESS="
    },
    {
      "fax": "12345",
      "id": "544",
      "name": "ADDRESS="
    },
    {
      "fax": "12345",
      "id": "549",
      "name": "ADDRESS="
    },
    {
      "state": "TAMIL NADU",
      "city": "CBE",
      "fax": "12345",
      "id": "570",
      "name": "GFDHGFHADDRESS=CBE",
      "phone": "9976274280",
      "zip": "641045"
    },
    {
      "fax": "12345",
      "id": "576",
      "name": "UNDEFINEDADDRESS=8762 STONERIDGE CT",
      "phone": ""
    },
    {
      "fax": "12345",
      "id": "581",
      "name": "ADDRESS="
    },
    {
      "state": "TAMIL NADU",
      "city": "CBE",
      "fax": "12345",
      "id": "588",
      "name": "JHKJADDRESS=CBE",
      "phone": "9976274280",
      "zip": "641045"
    },
    {
      "fax": "12345",
      "id": "592",
      "name": "UNDEFINEDADDRESS=8762 STONERIDGE CT",
      "phone": ""
    },
    {
      "state": "TAMIL NADU",
      "city": "COIMBATORE",
      "fax": "12345",
      "id": "597",
      "name": "UNDEFINEDADDRESS=8762 STONERIDGE CT",
      "phone": "8695781197",
      "zip": "641021"
    },
    {
      "state": "TAMIL NADU",
      "city": "COIMBATORE",
      "fax": "12345",
      "id": "598",
      "name": "UNDEFINEDADDRESS=8762 STONERIDGE CT",
      "phone": "8695781197",
      "zip": "641021"
    },
    {
      "state": "GA",
      "city": "CANTON",
      "fax": "12345",
      "id": "603",
      "name": "REDDADDRESS=8762 STONERIDGE CT",
      "phone": "",
      "zip": "30115"
    },
    {
      "state": "GA",
      "city": "CANTON",
      "fax": "12345",
      "id": "606",
      "name": "REDDADDRESS=8762 STONERIDGE CT",
      "phone": "",
      "zip": "30115"
    },
    {
      "state": "GA",
      "city": "CANTON",
      "fax": "12345",
      "id": "608",
      "name": "REDDADDRESS=8762 STONERIDGE CT",
      "phone": "",
      "zip": "30115"
    },
    {
      "state": "GA",
      "city": "CANTON",
      "fax": "12345",
      "id": "609",
      "name": "REDDADDRESS=8762 STONERIDGE CT",
      "phone": "",
      "zip": "30115"
    },
    {
      "state": "EWR",
      "city": "ERER",
      "fax": "12345",
      "id": "615",
      "name": "ROSS NICOLETTIADDRESS=8762 STONERIDGE CT",
      "phone": "3432424242",
      "zip": "34324234"
    },
    {
      "state": "WEWQE",
      "city": "WEWE",
      "fax": "12345",
      "id": "617",
      "name": "ROSS NICOLETTIADDRESS=8762 STONERIDGE CT",
      "phone": "3444444444",
      "zip": "343434"
    },
    {
      "state": "WEWQE",
      "city": "WEWE",
      "fax": "12345",
      "id": "618",
      "name": "ROSS NICOLETTIADDRESS=8762 STONERIDGE CT",
      "phone": "3444444444",
      "zip": "343434"
    },
    {
      "state": "SD",
      "city": "SDD",
      "fax": "12345",
      "id": "631",
      "name": "ROSS NICOLETTIADDRESS=8762 STONERIDGE CT",
      "phone": "",
      "zip": "sd"
    },
    {
      "state": "323",
      "city": "W32",
      "fax": "12345",
      "id": "633",
      "name": "LYDA BURDICKADDRESS=8762 STONERIDGE CT",
      "phone": "",
      "zip": "23"
    },
    {
      "state": "GA",
      "city": "CANTON",
      "fax": "12345",
      "id": "634",
      "name": "HARLAND REIDYADDRESS=8762 STONERIDGE CT",
      "phone": "",
      "zip": "30115"
    },
    {
      "fax": "12345",
      "id": "652",
      "name": "ADDRESS="
    },
    {
      "fax": "12345",
      "id": "655",
      "name": "ADDRESS="
    },
    {
      "fax": "12345",
      "id": "656",
      "name": "ADDRESS="
    },
    {
      "fax": "12345",
      "id": "657",
      "name": "ADDRESS="
    },
    {
      "fax": "12345",
      "id": "661",
      "name": "ADDRESS="
    },
    {
      "fax": "12345",
      "id": "673",
      "name": "ADDRESS="
    },
    {
      "fax": "12345",
      "id": "679",
      "name": "ADDRESS="
    },
    {
      "id": "683",
      "name": "ATHENA"
    },
    {
      "state": "DSAF",
      "city": "DA",
      "fax": "",
      "address": "DAF",
      "id": "691",
      "name": "DSAF",
      "phone": "",
      "zip": "sdaf"
    },
    {
      "state": "DSADSA",
      "city": "DA",
      "fax": "",
      "address": "DSA",
      "id": "692",
      "name": "DAS",
      "phone": "",
      "zip": "dsadsa"
    },
    {
      "state": "DSADSA",
      "city": "DA",
      "fax": "",
      "address": "DSA",
      "id": "694",
      "name": "DAS",
      "phone": "",
      "zip": "dsadsa"
    },
    {
      "id": "698",
      "name": "DAS"
    },
    {
      "state": "INDIANA",
      "fax": "",
      "address": "GFSD",
      "id": "706",
      "name": "SFG",
      "phone": "12",
      "zip": "12311"
    },
    {
      "state": "INDIANA",
      "city": "HYD",
      "fax": "",
      "id": "714",
      "name": "SFG",
      "phone": "12",
      "zip": "12311"
    },
    {
      "state": "INDIANA",
      "city": "HYD",
      "fax": "",
      "id": "733",
      "name": "SFG",
      "phone": "12",
      "zip": "12311"
    },
    {
      "state": "INDIANA",
      "city": "HYD",
      "fax": "",
      "address": "GFSD",
      "id": "737",
      "name": "SFG",
      "phone": "12",
      "zip": "12311"
    },
    {
      "state": "INDIANA",
      "city": "HYD",
      "fax": "",
      "address": "GFSD",
      "id": "738",
      "name": "SFG",
      "phone": "12",
      "zip": "12311"
    },
    {
      "id": "751",
      "name": "ABC"
    },
    {
      "id": "752",
      "name": "ABC"
    },
    {
      "state": "122",
      "id": "779",
      "name": "FASD"
    },
    {
      "state": "122",
      "id": "780",
      "name": "FASD"
    },
    {
      "state": "FLORIDA",
      "city": "HOPPIPOLA",
      "fax": "3829832990",
      "address": "1-4-5BLOCK44 TREET8",
      "id": "781",
      "name": "SFG",
      "phone": "7758965425",
      "zip": "456859"
    }
  ]
}
